STARLINK-2222_new
1 18572C 21041V   21326.13419296  .00000455  00000-0  30444-4 0  3260
2 18572  53.0547 343.1324 0001620  59.3296  43.5579 15.06407972    10
STARLINK-2222_old
1 28572C 21041V   21325.14289520 -.00000830  00000-0 -55641-4 0  3259
2 28572  53.0546 347.5827 0001537  61.0157  63.0549 15.06398359    10
